[{"OBJECT_NAME":"STARLINK-5507","OBJECT_ID":"2023-021L","EPOCH":"2026-03-09T17:15:36.504000","MEAN_MOTION":14.98330813,"ECCENTRICITY":0.00031505,"INCLINATION":70.0004,"RA_OF_ASC_NODE":204.3366,"ARG_OF_PERICENTER":268.0006,"MEAN_ANOMALY":92.0792,"EPHEMERIS_TYPE":0,"CLASSIFICATION_TYPE":"U","NORAD_CAT_ID":55638,"ELEMENT_SET_NO":999,"REV_AT_EPOCH":16830,"BSTAR":9.023888e-6,"MEAN_MOTION_DOT":1.5e-7,"MEAN_MOTION_DDOT":0},{"OBJECT_NAME":"UM5-EOSAT","OBJECT_ID":"2024-149CR","EPOCH":"2026-03-09T17:21:09.122400","MEAN_MOTION":15.00894746,"ECCENTRICITY":0.00087192,"INCLINATION":97.6855,"RA_OF_ASC_NODE":148.6787,"ARG_OF_PERICENTER":107.8964,"MEAN_ANOMALY":252.3212,"EPHEMERIS_TYPE":0,"CLASSIFICATION_TYPE":"U","NORAD_CAT_ID":60555,"ELEMENT_SET_NO":999,"REV_AT_EPOCH":8529,"BSTAR":0.00036077282,"MEAN_MOTION_DOT":4.537e-5,"MEAN_MOTION_DDOT":0}]
